STARLINK-5668           
1 55350U 23013V   25284.33572681 -.00002964  00000+0 -20433-3 0  9990
2 55350  43.0048  31.7963 0001227 270.1274  89.9428 15.02552837149241
STARLINK-5659           
1 55351U 23013W   25284.32463188  .00000829  00000+0  76432-4 0  9998
2 55351  43.0053  31.7089 0001135 265.4479  94.6233 15.02532708149241
STARLINK-5547           
1 55352U 23013X   25284.33018060  .00000338  00000+0  40116-4 0  9990
2 55352  43.0053  31.7537 0000880 260.6958  99.3784 15.02533251149242
STARLINK-5608           
1 55353U 23013Y   25283.71190143  .00000116  00000+0  23677-4 0  9992
2 55353  43.0059  34.8515 0001510 264.5666  95.5004 15.02536030149150
STARLINK-5649           
1 55354U 23013Z   25284.32796206  .00000099  00000+0  22425-4 0  9993
2 55354  43.0060  31.7373 0001271 271.9820  88.0877 15.02535102149243
STARLINK-5647           
1 55355U 23013AA  25284.31796953  .00000540  00000+0  55032-4 0  9993
2 55355  43.0047  31.6469 0001170 263.9589  96.1120 15.02533735149235
STARLINK-5651           
1 55357U 23013AC  25284.31908040  .00000329  00000+0  39416-4 0  9990
2 55357  43.0028  31.6647 0001161 264.3438  95.7272 15.02538572149240
STARLINK-5622           
1 55358U 23013AD  25284.32130259 -.00000095  00000+0  80270-5 0  9997
2 55358  43.0084  31.6896 0001702 276.9136  83.1513 15.02535901149246
STARLINK-5641           
1 55359U 23013AE  25284.31575128  .00000667  00000+0  64454-4 0  9994
2 55359  43.0060  31.6441 0001357 264.2029  95.8659 15.02537552149249
STARLINK-5664           
1 55360U 23013AF  25283.63406622  .00000701  00000+0  66950-4 0  9994
2 55360  43.0047  48.1209 0001158 273.7596  86.3114 15.02532464148993
STARLINK-5665           
1 55361U 23013AG  25283.99471706  .00001264  00000+0  10861-3 0  9993
2 55361  43.0053  20.5333 0001724 269.9557  90.1087 15.02536933149343
STARLINK-5574           
1 55362U 23013AH  25284.27173721  .00001423  00000+0  12044-3 0  9994
2 55362  43.0070  19.1670 0001671 273.8487  86.2164 15.02514849149386
STARLINK-5627           
1 55364U 23013AK  25283.64875105  .00000457  00000+0  48938-4 0  9999
2 55364  43.0056  35.2372 0002645 287.3167  72.7386 15.02536158149144
STARLINK-5639           
1 55365U 23013AL  25284.07288720 -.00000135  00000+0  50632-5 0  9998
2 55365  43.0039  46.2539 0001132 272.7673  87.3040 15.02538683149057
STARLINK-5654           
1 55366U 23013AM  25283.61027992 -.00000110  00000+0  69447-5 0  9997
2 55366  43.0042  22.7998 0001030 266.1518  93.9206 15.02535497149284
STARLINK-5635           
1 55367U 23013AN  25284.29171971 -.00001925  00000+0 -12755-3 0  9994
2 55367  43.0050  19.3089 0001654 270.5675  89.4977 15.02515500149381
