[{"OBJECT_NAME":"STARLINK-5668","OBJECT_ID":"2023-013V","EPOCH":"2025-10-11T08:03:26.796384","MEAN_MOTION":15.02552837,"ECCENTRICITY":0.0001227,"INCLINATION":43.0048,"RA_OF_ASC_NODE":31.7963,"ARG_OF_PERICENTER":270.1274,"MEAN_ANOMALY":89.9428,"EPHEMERIS_TYPE":0,"CLASSIFICATION_TYPE":"U","NORAD_CAT_ID":55350,"ELEMENT_SET_NO":999,"REV_AT_EPOCH":14924,"BSTAR":-0.00020432887,"MEAN_MOTION_DOT":-2.964e-5,"MEAN_MOTION_DDOT":0},{"OBJECT_NAME":"STARLINK-5659","OBJECT_ID":"2023-013W","EPOCH":"2025-10-11T07:47:28.194432","MEAN_MOTION":15.02532708,"ECCENTRICITY":0.00011354,"INCLINATION":43.0053,"RA_OF_ASC_NODE":31.7089,"ARG_OF_PERICENTER":265.4479,"MEAN_ANOMALY":94.6233,"EPHEMERIS_TYPE":0,"CLASSIFICATION_TYPE":"U","NORAD_CAT_ID":55351,"ELEMENT_SET_NO":999,"REV_AT_EPOCH":14924,"BSTAR":7.6432072e-5,"MEAN_MOTION_DOT":8.29e-6,"MEAN_MOTION_DDOT":0},{"OBJECT_NAME":"STARLINK-5547","OBJECT_ID":"2023-013X","EPOCH":"2025-10-11T07:55:27.603840","MEAN_MOTION":15.02533251,"ECCENTRICITY":8.809e-5,"INCLINATION":43.0053,"RA_OF_ASC_NODE":31.7537,"ARG_OF_PERICENTER":260.6958,"MEAN_ANOMALY":99.3784,"EPHEMERIS_TYPE":0,"CLASSIFICATION_TYPE":"U","NORAD_CAT_ID":55352,"ELEMENT_SET_NO":999,"REV_AT_EPOCH":14924,"BSTAR":4.0116484e-5,"MEAN_MOTION_DOT":3.38e-6,"MEAN_MOTION_DDOT":0},{"OBJECT_NAME":"STARLINK-5608","OBJECT_ID":"2023-013Y","EPOCH":"2025-10-10T17:05:08.283552","MEAN_MOTION":15.0253603,"ECCENTRICITY":0.00015103,"INCLINATION":43.0059,"RA_OF_ASC_NODE":34.8515,"ARG_OF_PERICENTER":264.5666,"MEAN_ANOMALY":95.5004,"EPHEMERIS_TYPE":0,"CLASSIFICATION_TYPE":"U","NORAD_CAT_ID":55353,"ELEMENT_SET_NO":999,"REV_AT_EPOCH":14915,"BSTAR":2.3676814e-5,"MEAN_MOTION_DOT":1.16e-6,"MEAN_MOTION_DDOT":0},{"OBJECT_NAME":"STARLINK-5649","OBJECT_ID":"2023-013Z","EPOCH":"2025-10-11T07:52:15.921984","MEAN_MOTION":15.02535102,"ECCENTRICITY":0.00012715,"INCLINATION":43.006,"RA_OF_ASC_NODE":31.7373,"ARG_OF_PERICENTER":271.982,"MEAN_ANOMALY":88.0877,"EPHEMERIS_TYPE":0,"CLASSIFICATION_TYPE":"U","NORAD_CAT_ID":55354,"ELEMENT_SET_NO":999,"REV_AT_EPOCH":14924,"BSTAR":2.2424721e-5,"MEAN_MOTION_DOT":9.9e-7,"MEAN_MOTION_DDOT":0},{"OBJECT_NAME":"STARLINK-5647","OBJECT_ID":"2023-013AA","EPOCH":"2025-10-11T07:37:52.567392","MEAN_MOTION":15.02533735,"ECCENTRICITY":0.000117,"INCLINATION":43.0047,"RA_OF_ASC_NODE":31.6469,"ARG_OF_PERICENTER":263.9589,"MEAN_ANOMALY":96.112,"EPHEMERIS_TYPE":0,"CLASSIFICATION_TYPE":"U","NORAD_CAT_ID":55355,"ELEMENT_SET_NO":999,"REV_AT_EPOCH":14923,"BSTAR":5.503212e-5,"MEAN_MOTION_DOT":5.4e-6,"MEAN_MOTION_DDOT":0},{"OBJECT_NAME":"STARLINK-5651","OBJECT_ID":"2023-013AC","EPOCH":"2025-10-11T07:39:28.546560","MEAN_MOTION":15.02538572,"ECCENTRICITY":0.00011617,"INCLINATION":43.0028,"RA_OF_ASC_NODE":31.6647,"ARG_OF_PERICENTER":264.3438,"MEAN_ANOMALY":95.7272,"EPHEMERIS_TYPE":0,"CLASSIFICATION_TYPE":"U","NORAD_CAT_ID":55357,"ELEMENT_SET_NO":999,"REV_AT_EPOCH":14924,"BSTAR":3.9415976e-5,"MEAN_MOTION_DOT":3.29e-6,"MEAN_MOTION_DDOT":0},{"OBJECT_NAME":"STARLINK-5622","OBJECT_ID":"2023-013AD","EPOCH":"2025-10-11T07:42:40.543776","MEAN_MOTION":15.02535901,"ECCENTRICITY":0.00017024,"INCLINATION":43.0084,"RA_OF_ASC_NODE":31.6896,"ARG_OF_PERICENTER":276.9136,"MEAN_ANOMALY":83.1513,"EPHEMERIS_TYPE":0,"CLASSIFICATION_TYPE":"U","NORAD_CAT_ID":55358,"ELEMENT_SET_NO":999,"REV_AT_EPOCH":14924,"BSTAR":8.026994e-6,"MEAN_MOTION_DOT":-9.5e-7,"MEAN_MOTION_DDOT":0},{"OBJECT_NAME":"STARLINK-5641","OBJECT_ID":"2023-013AE","EPOCH":"2025-10-11T07:34:40.910592","MEAN_MOTION":15.02537552,"ECCENTRICITY":0.00013572,"INCLINATION":43.006,"RA_OF_ASC_NODE":31.6441,"ARG_OF_PERICENTER":264.2029,"MEAN_ANOMALY":95.8659,"EPHEMERIS_TYPE":0,"CLASSIFICATION_TYPE":"U","NORAD_CAT_ID":55359,"ELEMENT_SET_NO":999,"REV_AT_EPOCH":14924,"BSTAR":6.4454226e-5,"MEAN_MOTION_DOT":6.67e-6,"MEAN_MOTION_DDOT":0},{"OBJECT_NAME":"STARLINK-5664","OBJECT_ID":"2023-013AF","EPOCH":"2025-10-10T15:13:03.321408","MEAN_MOTION":15.02532464,"ECCENTRICITY":0.00011587,"INCLINATION":43.0047,"RA_OF_ASC_NODE":48.1209,"ARG_OF_PERICENTER":273.7596,"MEAN_ANOMALY":86.3114,"EPHEMERIS_TYPE":0,"CLASSIFICATION_TYPE":"U","NORAD_CAT_ID":55360,"ELEMENT_SET_NO":999,"REV_AT_EPOCH":14899,"BSTAR":6.6950438e-5,"MEAN_MOTION_DOT":7.01e-6,"MEAN_MOTION_DDOT":0},{"OBJECT_NAME":"STARLINK-5665","OBJECT_ID":"2023-013AG","EPOCH":"2025-10-10T23:52:23.553984","MEAN_MOTION":15.02536933,"ECCENTRICITY":0.00017241,"INCLINATION":43.0053,"RA_OF_ASC_NODE":20.5333,"ARG_OF_PERICENTER":269.9557,"MEAN_ANOMALY":90.1087,"EPHEMERIS_TYPE":0,"CLASSIFICATION_TYPE":"U","NORAD_CAT_ID":55361,"ELEMENT_SET_NO":999,"REV_AT_EPOCH":14934,"BSTAR":0.00010860634,"MEAN_MOTION_DOT":1.264e-5,"MEAN_MOTION_DDOT":0},{"OBJECT_NAME":"STARLINK-5574","OBJECT_ID":"2023-013AH","EPOCH":"2025-10-11T06:31:18.094944","MEAN_MOTION":15.02514849,"ECCENTRICITY":0.00016718,"INCLINATION":43.007,"RA_OF_ASC_NODE":19.167,"ARG_OF_PERICENTER":273.8487,"MEAN_ANOMALY":86.2164,"EPHEMERIS_TYPE":0,"CLASSIFICATION_TYPE":"U","NORAD_CAT_ID":55362,"ELEMENT_SET_NO":999,"REV_AT_EPOCH":14938,"BSTAR":0.00012043673,"MEAN_MOTION_DOT":1.423e-5,"MEAN_MOTION_DDOT":0},{"OBJECT_NAME":"STARLINK-5627","OBJECT_ID":"2023-013AK","EPOCH":"2025-10-10T15:34:12.090720","MEAN_MOTION":15.02536158,"ECCENTRICITY":0.00026456,"INCLINATION":43.0056,"RA_OF_ASC_NODE":35.2372,"ARG_OF_PERICENTER":287.3167,"MEAN_ANOMALY":72.7386,"EPHEMERIS_TYPE":0,"CLASSIFICATION_TYPE":"U","NORAD_CAT_ID":55364,"ELEMENT_SET_NO":999,"REV_AT_EPOCH":14914,"BSTAR":4.8937824e-5,"MEAN_MOTION_DOT":4.57e-6,"MEAN_MOTION_DDOT":0},{"OBJECT_NAME":"STARLINK-5639","OBJECT_ID":"2023-013AL","EPOCH":"2025-10-11T01:44:57.454080","MEAN_MOTION":15.02538683,"ECCENTRICITY":0.00011322,"INCLINATION":43.0039,"RA_OF_ASC_NODE":46.2539,"ARG_OF_PERICENTER":272.7673,"MEAN_ANOMALY":87.304,"EPHEMERIS_TYPE":0,"CLASSIFICATION_TYPE":"U","NORAD_CAT_ID":55365,"ELEMENT_SET_NO":999,"REV_AT_EPOCH":14905,"BSTAR":5.063192e-6,"MEAN_MOTION_DOT":-1.35e-6,"MEAN_MOTION_DDOT":0},{"OBJECT_NAME":"STARLINK-5654","OBJECT_ID":"2023-013AM","EPOCH":"2025-10-10T14:38:48.185088","MEAN_MOTION":15.02535497,"ECCENTRICITY":0.00010304,"INCLINATION":43.0042,"RA_OF_ASC_NODE":22.7998,"ARG_OF_PERICENTER":266.1518,"MEAN_ANOMALY":93.9206,"EPHEMERIS_TYPE":0,"CLASSIFICATION_TYPE":"U","NORAD_CAT_ID":55366,"ELEMENT_SET_NO":999,"REV_AT_EPOCH":14928,"BSTAR":6.944714e-6,"MEAN_MOTION_DOT":-1.1e-6,"MEAN_MOTION_DDOT":0},{"OBJECT_NAME":"STARLINK-5635","OBJECT_ID":"2023-013AN","EPOCH":"2025-10-11T07:00:04.582944","MEAN_MOTION":15.025155,"ECCENTRICITY":0.00016549,"INCLINATION":43.005,"RA_OF_ASC_NODE":19.3089,"ARG_OF_PERICENTER":270.5675,"MEAN_ANOMALY":89.4977,"EPHEMERIS_TYPE":0,"CLASSIFICATION_TYPE":"U","NORAD_CAT_ID":55367,"ELEMENT_SET_NO":999,"REV_AT_EPOCH":14938,"BSTAR":-0.00012755078,"MEAN_MOTION_DOT":-1.925e-5,"MEAN_MOTION_DDOT":0}]
